SL-16 R/B               
1 25400U 98043G   26047.47206262  .00000062  00000+0  44673-4 0  9998
2 25400  98.8219   0.6898 0010960  77.1669 283.0735 14.26044625435962
SL-16 R/B               
1 25407U 98045B   26047.59515633  .00000291  00000+0  17115-3 0  9999
2 25407  71.0089 225.9338 0005717  46.0940 314.0655 14.16188936424113
ISS (ZARYA)             
1 25544U 98067A   26047.53756625  .00009593  00000+0  18404-3 0  9993
2 25544  51.6319 176.9116 0011020 104.8338 255.3872 15.48645386553059
CZ-4B R/B               
1 25732U 99025C   26047.58941362  .00000049  00000+0  44363-4 0  9997
2 25732  98.6669  92.3663 0037861  46.9561 105.9070 14.18261005385174
OKEAN-O                 
1 25860U 99039A   26047.15700445  .00000767  00000+0  10752-3 0  9993
2 25860  97.9491 107.2623 0001811  81.6639 278.4778 14.80299640431203
SL-16 R/B               
1 25861U 99039B   26047.15720629  .00000647  00000+0  88903-4 0  9991
2 25861  98.0013 106.2806 0014068 332.1828  27.8631 14.81700648433673
DELTA 2 R/B             
1 25876U 99041E   26047.34530234  .00002147  00000+0  38268-3 0  9997
2 25876  51.7657  26.5187 0502240 285.3876  69.2117 14.11756969360017
HELIOS 1B               
1 25977U 99064A   26047.59388195  .00001772  00000+0  20134-3 0  9994
2 25977  98.1721 309.2151 0002313 102.7865 257.3609 14.87607598682125
TERRA                   
1 25994U 99068A   26047.64035398  .00000446  00000+0  10007-3 0  9992
2 25994  97.9639 101.8744 0001208 218.7700 302.9493 14.60991224392007
SL-16 R/B               
1 26070U 00006B   26047.60506130 -.00000173  00000+0 -63319-4 0  9999
2 26070  71.0024 142.1710 0018032 219.8617 140.1183 14.15818601345572
TITAN 4B R/B            
1 26474U 00047B   26047.55875403  .00003330  00000+0  21308-3 0  9995
2 26474  67.9887  99.9228 0037156  61.1666 299.3205 15.09374616389728
ENVISAT                 
1 27386U 02009A   26047.48395361  .00000130  00000+0  55814-4 0  9995
2 27386  98.3693   1.5911 0001356  86.8703  23.3584 14.39028810256127
