CCSDS_OMM_VERS = 2.0
CREATION_DATE  = 
ORIGINATOR     = 

OBJECT_NAME    = SL-16 R/B
OBJECT_ID      = 1998-043G
CENTER_NAME    = EARTH
REF_FRAME      = TEME
TIME_SYSTEM    = UTC
MEAN_ELEMENT_THEORY = SGP/SGP4

EPOCH          = 2026-02-16T11:19:46.210368
MEAN_MOTION    = 14.26044625
ECCENTRICITY   = .00109608
INCLINATION    = 98.8219
RA_OF_ASC_NODE = 0.6898
ARG_OF_PERICENTER = 77.1669
MEAN_ANOMALY   = 283.0735

EPHEMERIS_TYPE = 0
CLASSIFICATION_TYPE = U
NORAD_CAT_ID   = 25400
ELEMENT_SET_NO = 999
REV_AT_EPOCH   = 43596
BSTAR          = .4467323E-4
MEAN_MOTION_DOT = .62E-6
MEAN_MOTION_DDOT = 0

CCSDS_OMM_VERS = 2.0
CREATION_DATE  = 
ORIGINATOR     = 

OBJECT_NAME    = SL-16 R/B
OBJECT_ID      = 1998-045B
CENTER_NAME    = EARTH
REF_FRAME      = TEME
TIME_SYSTEM    = UTC
MEAN_ELEMENT_THEORY = SGP/SGP4

EPOCH          = 2026-02-16T14:17:01.506912
MEAN_MOTION    = 14.16188936
ECCENTRICITY   = .00057174
INCLINATION    = 71.0089
RA_OF_ASC_NODE = 225.9338
ARG_OF_PERICENTER = 46.0940
MEAN_ANOMALY   = 314.0655

EPHEMERIS_TYPE = 0
CLASSIFICATION_TYPE = U
NORAD_CAT_ID   = 25407
ELEMENT_SET_NO = 999
REV_AT_EPOCH   = 42411
BSTAR          = .1711526E-3
MEAN_MOTION_DOT = .291E-5
MEAN_MOTION_DDOT = 0

CCSDS_OMM_VERS = 2.0
CREATION_DATE  = 
ORIGINATOR     = 

OBJECT_NAME    = ISS (ZARYA)
OBJECT_ID      = 1998-067A
CENTER_NAME    = EARTH
REF_FRAME      = TEME
TIME_SYSTEM    = UTC
MEAN_ELEMENT_THEORY = SGP/SGP4

EPOCH          = 2026-02-16T12:54:05.724000
MEAN_MOTION    = 15.48645386
ECCENTRICITY   = .00110201
INCLINATION    = 51.6319
RA_OF_ASC_NODE = 176.9116
ARG_OF_PERICENTER = 104.8338
MEAN_ANOMALY   = 255.3872

EPHEMERIS_TYPE = 0
CLASSIFICATION_TYPE = U
NORAD_CAT_ID   = 25544
ELEMENT_SET_NO = 999
REV_AT_EPOCH   = 55305
BSTAR          = .18403846E-3
MEAN_MOTION_DOT = .9593E-4
MEAN_MOTION_DDOT = 0

CCSDS_OMM_VERS = 2.0
CREATION_DATE  = 
ORIGINATOR     = 

OBJECT_NAME    = CZ-4B R/B
OBJECT_ID      = 1999-025C
CENTER_NAME    = EARTH
REF_FRAME      = TEME
TIME_SYSTEM    = UTC
MEAN_ELEMENT_THEORY = SGP/SGP4

EPOCH          = 2026-02-16T14:08:45.336768
MEAN_MOTION    = 14.18261005
ECCENTRICITY   = .00378615
INCLINATION    = 98.6669
RA_OF_ASC_NODE = 92.3663
ARG_OF_PERICENTER = 46.9561
MEAN_ANOMALY   = 105.9070

EPHEMERIS_TYPE = 0
CLASSIFICATION_TYPE = U
NORAD_CAT_ID   = 25732
ELEMENT_SET_NO = 999
REV_AT_EPOCH   = 38517
BSTAR          = .4436341E-4
MEAN_MOTION_DOT = .49E-6
MEAN_MOTION_DDOT = 0

CCSDS_OMM_VERS = 2.0
CREATION_DATE  = 
ORIGINATOR     = 

OBJECT_NAME    = OKEAN-O
OBJECT_ID      = 1999-039A
CENTER_NAME    = EARTH
REF_FRAME      = TEME
TIME_SYSTEM    = UTC
MEAN_ELEMENT_THEORY = SGP/SGP4

EPOCH          = 2026-02-16T03:46:05.184480
MEAN_MOTION    = 14.80299640
ECCENTRICITY   = .0001811
INCLINATION    = 97.9491
RA_OF_ASC_NODE = 107.2623
ARG_OF_PERICENTER = 81.6639
MEAN_ANOMALY   = 278.4778

EPHEMERIS_TYPE = 0
CLASSIFICATION_TYPE = U
NORAD_CAT_ID   = 25860
ELEMENT_SET_NO = 999
REV_AT_EPOCH   = 43120
BSTAR          = .10752338E-3
MEAN_MOTION_DOT = .767E-5
MEAN_MOTION_DDOT = 0

CCSDS_OMM_VERS = 2.0
CREATION_DATE  = 
ORIGINATOR     = 

OBJECT_NAME    = SL-16 R/B
OBJECT_ID      = 1999-039B
CENTER_NAME    = EARTH
REF_FRAME      = TEME
TIME_SYSTEM    = UTC
MEAN_ELEMENT_THEORY = SGP/SGP4

EPOCH          = 2026-02-16T03:46:22.623456
MEAN_MOTION    = 14.81700648
ECCENTRICITY   = .00140683
INCLINATION    = 98.0013
RA_OF_ASC_NODE = 106.2806
ARG_OF_PERICENTER = 332.1828
MEAN_ANOMALY   = 27.8631

EPHEMERIS_TYPE = 0
CLASSIFICATION_TYPE = U
NORAD_CAT_ID   = 25861
ELEMENT_SET_NO = 999
REV_AT_EPOCH   = 43367
BSTAR          = .88903039E-4
MEAN_MOTION_DOT = .647E-5
MEAN_MOTION_DDOT = 0

CCSDS_OMM_VERS = 2.0
CREATION_DATE  = 
ORIGINATOR     = 

OBJECT_NAME    = DELTA 2 R/B
OBJECT_ID      = 1999-041E
CENTER_NAME    = EARTH
REF_FRAME      = TEME
TIME_SYSTEM    = UTC
MEAN_ELEMENT_THEORY = SGP/SGP4

EPOCH          = 2026-02-16T08:17:14.122176
MEAN_MOTION    = 14.11756969
ECCENTRICITY   = .05022403
INCLINATION    = 51.7657
RA_OF_ASC_NODE = 26.5187
ARG_OF_PERICENTER = 285.3876
MEAN_ANOMALY   = 69.2117

EPHEMERIS_TYPE = 0
CLASSIFICATION_TYPE = U
NORAD_CAT_ID   = 25876
ELEMENT_SET_NO = 999
REV_AT_EPOCH   = 36001
BSTAR          = .38267583E-3
MEAN_MOTION_DOT = .2147E-4
MEAN_MOTION_DDOT = 0

CCSDS_OMM_VERS = 2.0
CREATION_DATE  = 
ORIGINATOR     = 

OBJECT_NAME    = HELIOS 1B
OBJECT_ID      = 1999-064A
CENTER_NAME    = EARTH
REF_FRAME      = TEME
TIME_SYSTEM    = UTC
MEAN_ELEMENT_THEORY = SGP/SGP4

EPOCH          = 2026-02-16T14:15:11.400480
MEAN_MOTION    = 14.87607598
ECCENTRICITY   = .00023139
INCLINATION    = 98.1721
RA_OF_ASC_NODE = 309.2151
ARG_OF_PERICENTER = 102.7865
MEAN_ANOMALY   = 257.3609

EPHEMERIS_TYPE = 0
CLASSIFICATION_TYPE = U
NORAD_CAT_ID   = 25977
ELEMENT_SET_NO = 999
REV_AT_EPOCH   = 68212
BSTAR          = .2013397E-3
MEAN_MOTION_DOT = .1772E-4
MEAN_MOTION_DDOT = 0

CCSDS_OMM_VERS = 2.0
CREATION_DATE  = 
ORIGINATOR     = 

OBJECT_NAME    = TERRA
OBJECT_ID      = 1999-068A
CENTER_NAME    = EARTH
REF_FRAME      = TEME
TIME_SYSTEM    = UTC
MEAN_ELEMENT_THEORY = SGP/SGP4

EPOCH          = 2026-02-16T15:22:06.583872
MEAN_MOTION    = 14.60991224
ECCENTRICITY   = .00012086
INCLINATION    = 97.9639
RA_OF_ASC_NODE = 101.8744
ARG_OF_PERICENTER = 218.7700
MEAN_ANOMALY   = 302.9493

EPHEMERIS_TYPE = 0
CLASSIFICATION_TYPE = U
NORAD_CAT_ID   = 25994
ELEMENT_SET_NO = 999
REV_AT_EPOCH   = 39200
BSTAR          = .10007032E-3
MEAN_MOTION_DOT = .446E-5
MEAN_MOTION_DDOT = 0

CCSDS_OMM_VERS = 2.0
CREATION_DATE  = 
ORIGINATOR     = 

OBJECT_NAME    = SL-16 R/B
OBJECT_ID      = 2000-006B
CENTER_NAME    = EARTH
REF_FRAME      = TEME
TIME_SYSTEM    = UTC
MEAN_ELEMENT_THEORY = SGP/SGP4

EPOCH          = 2026-02-16T14:31:17.296320
MEAN_MOTION    = 14.15818601
ECCENTRICITY   = .00180323
INCLINATION    = 71.0024
RA_OF_ASC_NODE = 142.1710
ARG_OF_PERICENTER = 219.8617
MEAN_ANOMALY   = 140.1183

EPHEMERIS_TYPE = 0
CLASSIFICATION_TYPE = U
NORAD_CAT_ID   = 26070
ELEMENT_SET_NO = 999
REV_AT_EPOCH   = 34557
BSTAR          = -.63319079E-4
MEAN_MOTION_DOT = -.173E-5
MEAN_MOTION_DDOT = 0

CCSDS_OMM_VERS = 2.0
CREATION_DATE  = 
ORIGINATOR     = 

OBJECT_NAME    = TITAN 4B R/B
OBJECT_ID      = 2000-047B
CENTER_NAME    = EARTH
REF_FRAME      = TEME
TIME_SYSTEM    = UTC
MEAN_ELEMENT_THEORY = SGP/SGP4

EPOCH          = 2026-02-16T13:24:36.348192
MEAN_MOTION    = 15.09374616
ECCENTRICITY   = .00371566
INCLINATION    = 67.9887
RA_OF_ASC_NODE = 99.9228
ARG_OF_PERICENTER = 61.1666
MEAN_ANOMALY   = 299.3205

EPHEMERIS_TYPE = 0
CLASSIFICATION_TYPE = U
NORAD_CAT_ID   = 26474
ELEMENT_SET_NO = 999
REV_AT_EPOCH   = 38972
BSTAR          = .21307709E-3
MEAN_MOTION_DOT = .333E-4
MEAN_MOTION_DDOT = 0

CCSDS_OMM_VERS = 2.0
CREATION_DATE  = 
ORIGINATOR     = 

OBJECT_NAME    = ENVISAT
OBJECT_ID      = 2002-009A
CENTER_NAME    = EARTH
REF_FRAME      = TEME
TIME_SYSTEM    = UTC
MEAN_ELEMENT_THEORY = SGP/SGP4

EPOCH          = 2026-02-16T11:36:53.591904
MEAN_MOTION    = 14.39028810
ECCENTRICITY   = .00013566
INCLINATION    = 98.3693
RA_OF_ASC_NODE = 1.5911
ARG_OF_PERICENTER = 86.8703
MEAN_ANOMALY   = 23.3584

EPHEMERIS_TYPE = 0
CLASSIFICATION_TYPE = U
NORAD_CAT_ID   = 27386
ELEMENT_SET_NO = 999
REV_AT_EPOCH   = 25612
BSTAR          = .55813503E-4
MEAN_MOTION_DOT = .13E-5
MEAN_MOTION_DDOT = 0

